NORAD_CAT_ID,OBJECT_NAME,OBJECT_TYPE,EPOCH,MEAN_MOTION,ECCENTRICITY,INCLINATION,RA_OF_ASC_NODE,ARG_OF_PERICENTER,MEAN_ANOMALY,BSTAR,MEAN_MOTION_DOT,MEAN_MOTION_DDOT,TLE_LINE0,TLE_LINE1,TLE_LINE2,SEMIMAJOR_AXIS,PERIOD,APOGEE,PERIGEE,DECAYED
54064.0,STARLINK-5172,PAYLOAD,2023-11-02 10:12:46,15.08837974,0.0001323,53.2146,192.196,103.1074,257.0066,0.00012618,1.721e-05,0.0,0 STARLINK-5172,1 54064U 22136P   23306.42554335  .00001721  00000-0  12618-3 0  9990,2 54064  53.2146 192.1960 0001323 103.1074 257.0066 15.08837974 57904,6917.887,95.438,540.667,538.836,0.0
54064.0,STARLINK-5172,PAYLOAD,2023-11-02 19:45:06,15.08837358,0.0001473,53.2148,190.4117,97.8093,262.3066,0.00020805,3.024e-05,0.0,0 STARLINK-5172,1 54064U 22136P   23306.82298677  .00003024  00000-0  20805-3 0  9993,2 54064  53.2148 190.4117 0001473  97.8093 262.3066 15.08837358 58442,6917.888,95.438,540.772,538.734,0.0
54064.0,STARLINK-5172,PAYLOAD,2023-11-02 22:55:52,15.08841771,0.000159,53.2166,189.818,92.1796,267.9379,0.00021873,3.195e-05,0.0,0 STARLINK-5172,1 54064U 22136P   23306.95546511  .00003195  00000-0  21873-3 0  9995,2 54064  53.2166 189.8180 0001590  92.1796 267.9379 15.08841771 57982,6917.875,95.437,540.84,538.64,0.0
54064.0,STARLINK-5172,PAYLOAD,2023-11-03 02:06:38,15.08844833,0.0001613,53.2168,189.2216,96.2354,263.8822,0.00025222,3.729e-05,0.0,0 STARLINK-5172,1 54064U 22136P   23307.08794329  .00003729  00000-0  25222-3 0  9997,2 54064  53.2168 189.2216 0001613  96.2354 263.8822 15.08844833 58003,6917.866,95.437,540.846,538.615,0.0
54064.0,STARLINK-5172,PAYLOAD,2023-11-03 21:11:16,15.08844287,0.0001746,53.2163,185.6519,98.9933,261.1256,0.00015954,2.252e-05,0.0,0 STARLINK-5172,1 54064U 22136P   23307.88282415  .00002252  00000-0  15954-3 0  9994,2 54064  53.2163 185.6519 0001746  98.9933 261.1256 15.08844287 58604,6917.867,95.437,540.94,538.524,0.0
54064.0,STARLINK-5172,PAYLOAD,2023-11-03 22:46:38,15.08848745,0.0001564,53.2166,185.3542,99.7284,260.3885,0.00017126,2.439e-05,0.0,0 STARLINK-5172,1 54064U 22136P   23307.94906131  .00002439  00000-0  17126-3 0  9999,2 54064  53.2166 185.3542 0001564  99.7284 260.3885 15.08848745 58136,6917.854,95.437,540.801,538.637,0.0
54064.0,STARLINK-5172,PAYLOAD,2023-11-04 01:57:25,15.08848625,0.0001575,53.2165,184.7596,97.9463,262.1708,0.00021,3.056e-05,0.0,0 STARLINK-5172,1 54064U 22136P   23308.08154147  .00003056  00000-0  21000-3 0  9999,2 54064  53.2165 184.7596 0001575  97.9463 262.1708 15.08848625 58151,6917.854,95.437,540.809,538.629,0.0
54064.0,STARLINK-5172,PAYLOAD,2023-11-04 21:02:03,15.08839418,0.0001455,53.2156,181.1889,96.3751,263.7407,5.0875e-05,5.22e-06,0.0,0 STARLINK-5172,1 54064U 22136P   23308.87642576  .00000522  00000-0  50875-4 0  9992,2 54064  53.2156 181.1889 0001455  96.3751 263.7407 15.08839418 58756,6917.882,95.438,540.754,538.741,0.0
54064.0,STARLINK-5172,PAYLOAD,2023-11-04 22:37:26,15.08841959,0.0001471,53.2161,180.8912,96.0351,264.0809,9.5947e-05,1.239e-05,0.0,0 STARLINK-5172,1 54064U 22136P   23308.94266534  .00001239  00000-0  95947-4 0  9991,2 54064  53.2161 180.8912 0001471  96.0351 264.0809 15.08841959 58287,6917.874,95.437,540.757,538.722,0.0
54064.0,STARLINK-5172,PAYLOAD,2023-11-05 08:09:44,15.08848451,0.0001425,53.2164,179.1125,94.2356,265.8799,0.00014935,2.09e-05,0.0,0 STARLINK-5172,1 54064U 22136P   23309.34010255  .00002090  00000-0  14935-3 0  9996,2 54064  53.2164 179.1125 0001425  94.2356 265.8799 15.08848451 58349,6917.855,95.437,540.705,538.734,0.0
54064.0,STARLINK-5172,PAYLOAD,2023-11-05 19:17:26,15.08856933,0.0001298,53.2158,177.0281,95.2315,264.8825,0.0002988,4.473e-05,0.0,0 STARLINK-5172,1 54064U 22136P   23309.80377587  .00004473  00000-0  29880-3 0  9993,2 54064  53.2158 177.0281 0001298  95.2315 264.8825 15.08856933 58899,6917.829,95.436,540.592,538.796,0.0
54064.0,STARLINK-5172,PAYLOAD,2023-11-05 20:52:49,15.08870513,0.0001336,53.2157,176.7316,88.2626,271.8519,0.0006132,9.493e-05,0.0,0 STARLINK-5172,1 54064U 22136P   23309.87001290  .00009493  00000-0  61320-3 0  9997,2 54064  53.2157 176.7316 0001336  88.2626 271.8519 15.08870513 58420,6917.787,95.436,540.576,538.728,0.0
54064.0,STARLINK-5172,PAYLOAD,2023-11-06 00:03:34,15.08881555,0.000137,53.216,176.1366,111.1311,248.9828,0.0012146,0.00019117,0.0,0 STARLINK-5172,1 54064U 22136P   23310.00248764  .00019117  00000-0  12146-2 0  9998,2 54064  53.2160 176.1366 0001370 111.1311 248.9828 15.08881555 58929,6917.753,95.435,540.566,538.671,0.0
54064.0,STARLINK-5172,PAYLOAD,2023-11-06 08:00:30,15.08866569,0.0002352,53.2158,174.649,81.9547,278.1712,0.00062757,9.721e-05,0.0,0 STARLINK-5172,1 54064U 22136P   23310.33369071  .00009721  00000-0  62757-3 0  9993,2 54064  53.2158 174.6490 0002352  81.9547 278.1712 15.08866569 58973,6917.799,95.436,541.291,538.037,0.0
54064.0,STARLINK-5172,PAYLOAD,2023-11-06 19:08:13,15.08827611,0.0001155,53.2152,172.5673,72.9645,287.1474,-0.00068527,-0.00011173,0.0,0 STARLINK-5172,1 54064U 22136P   23310.79737394 -.00011173  00000-0 -68527-3 0  9997,2 54064  53.2152 172.5673 0001155  72.9645 287.1474 15.08827611 59045,6917.918,95.438,540.582,538.984,0.0
54064.0,STARLINK-5172,PAYLOAD,2023-11-06 22:19:00,15.08799915,0.0001275,53.2151,171.9734,80.9602,279.1534,-0.001362,-0.00021875,0.0,0 STARLINK-5172,1 54064U 22136P   23310.92986348 -.00021875  00000-0 -13620-2 0  9990,2 54064  53.2151 171.9734 0001275  80.9602 279.1534 15.08799915 58581,6918.003,95.44,540.75,538.986,0.0
54064.0,STARLINK-5172,PAYLOAD,2023-11-06 23:54:23,15.08803135,0.0001397,53.2162,171.6782,97.3086,262.8065,-0.0011561,-0.00018621,0.0,0 STARLINK-5172,1 54064U 22136P   23310.99610596 -.00018621  00000-0 -11561-2 0  9993,2 54064  53.2162 171.6782 0001397  97.3086 262.8065 15.08803135 59079,6917.993,95.44,540.825,538.892,0.0
54064.0,STARLINK-5172,PAYLOAD,2023-11-07 07:51:19,15.08797592,0.0001318,53.2158,170.1935,95.3654,264.7489,-0.00028697,-4.847e-05,0.0,0 STARLINK-5172,1 54064U 22136P   23311.32731465 -.00004847  00000-0 -28697-3 0  9994,2 54064  53.2158 170.1935 0001318  95.3654 264.7489 15.08797592 58642,6918.01,95.44,540.787,538.963,0.0
54064.0,STARLINK-5172,PAYLOAD,2023-11-07 18:59:03,15.08798223,0.0001223,53.215,168.1118,96.0817,264.0315,0.00124,0.00019479,0.0,0 STARLINK-5172,1 54064U 22136P   23311.79101303  .00019479  00000-0  12400-2 0  9996,2 54064  53.2150 168.1118 0001223  96.0817 264.0315 15.08798223 59192,6918.008,95.44,540.719,539.027,0.0
54064.0,STARLINK-5172,PAYLOAD,2023-11-08 14:03:41,15.08849459,0.0001285,53.215,164.5432,93.3348,266.7791,0.0016887,0.00026697,0.0,0 STARLINK-5172,1 54064U 22136P   23312.58589851  .00026697  00000-0  16887-2 0  9995,2 54064  53.2150 164.5432 0001285  93.3348 266.7791 15.08849459 58833,6917.851,95.437,540.605,538.828,0.0
54064.0,STARLINK-5172,PAYLOAD,2023-11-08 20:25:13,15.08862357,0.0001287,53.215,163.3534,89.995,270.119,0.0016619,0.00026276,0.0,0 STARLINK-5172,1 54064U 22136P   23312.85085560  .00026276  00000-0  16619-2 0  9999,2 54064  53.2150 163.3534 0001287  89.9950 270.1190 15.08862357 59357,6917.812,95.436,540.567,538.787,0.0
54064.0,STARLINK-5172,PAYLOAD,2023-11-09 20:15:59,15.08883171,0.0001396,53.2149,158.8941,78.5207,281.5941,0.0014906,0.00023543,0.0,0 STARLINK-5172,1 54064U 22136P   23313.84444139  .00023543  00000-0  14906-2 0  9991,2 54064  53.2149 158.8941 0001396  78.5207 281.5941 15.08883171 59500,6917.748,95.435,540.579,538.648,0.0
54064.0,STARLINK-5172,PAYLOAD,2023-11-10 07:23:41,15.08863303,0.0001415,53.215,156.8104,86.2058,273.9096,0.001478,0.00023328,0.0,0 STARLINK-5172,1 54064U 22136P   23314.30811543  .00023328  00000-0  14780-2 0  9991,2 54064  53.2150 156.8104 0001415  86.2058 273.9096 15.08863303 59571,6917.809,95.436,540.653,538.695,0.0
54064.0,STARLINK-5172,PAYLOAD,2023-11-10 20:06:46,15.0885391,0.0001426,53.2153,154.4312,95.1564,264.9591,0.001333,0.00020998,0.0,0 STARLINK-5172,1 54064U 22136P   23314.83803423  .00020998  00000-0  13330-2 0  9997,2 54064  53.2153 154.4312 0001426  95.1564 264.9591 15.08853910 59654,6917.838,95.437,540.689,538.716,0.0
54064.0,STARLINK-5172,PAYLOAD,2023-11-10 23:17:32,15.08851975,0.000144,53.2151,153.8365,94.4008,265.7149,0.00091836,0.00014363,0.0,0 STARLINK-5172,1 54064U 22136P   23314.97051329  .00014363  00000-0  91836-3 0  9999,2 54064  53.2151 153.8365 0001440  94.4008 265.7149 15.08851975 59673,6917.844,95.437,540.705,538.713,0.0
54064.0,STARLINK-5172,PAYLOAD,2023-11-11 19:57:33,15.08848136,0.0001423,53.215,149.9687,92.5197,267.5958,0.00014127,1.962e-05,0.0,0 STARLINK-5172,1 54064U 22136P   23315.83163304  .00001962  00000-0  14127-3 0  9991,2 54064  53.2150 149.9687 0001423  92.5197 267.5958 15.08848136 59802,6917.856,95.437,540.705,538.736,0.0
54064.0,STARLINK-5172,PAYLOAD,2023-11-12 11:51:24,15.08844498,0.0001374,53.2147,146.996,93.7478,266.3672,0.00015856,2.237e-05,0.0,0 STARLINK-5172,1 54064U 22136P   23316.49403358  .00002237  00000-0  15856-3 0  9996,2 54064  53.2147 146.9960 0001374  93.7478 266.3672 15.08844498 59424,6917.867,95.437,540.682,538.781,0.0
54064.0,STARLINK-5172,PAYLOAD,2023-11-12 19:48:19,15.08848564,0.0001368,53.2147,145.5091,93.3552,266.7596,0.00021529,3.141e-05,0.0,0 STARLINK-5172,1 54064U 22136P   23316.82523112  .00003141  00000-0  21529-3 0  9993,2 54064  53.2147 145.5091 0001368  93.3552 266.7596 15.08848564 59478,6917.854,95.437,540.666,538.773,0.0
54064.0,STARLINK-5172,PAYLOAD,2023-11-13 13:17:34,15.08841498,0.000136,53.2143,142.2382,92.2164,267.8983,6.7045e-05,7.79e-06,0.0,0 STARLINK-5172,1 54064U 22136P   23317.55387231  .00000779  00000-0  67045-4 0  9992,2 54064  53.2143 142.2382 0001360  92.2164 267.8983 15.08841498 59583,6917.876,95.437,540.682,538.8,0.0
54064.0,STARLINK-5172,PAYLOAD,2023-11-13 19:39:07,15.08840922,0.0001358,53.2146,141.0487,91.8591,268.2557,7.3257e-05,8.78e-06,0.0,0 STARLINK-5172,1 54064U 22136P   23317.81883316  .00000878  00000-0  73257-4 0  9998,2 54064  53.2146 141.0487 0001358  91.8591 268.2557 15.08840922 60108,6917.878,95.437,540.682,538.803,0.0
